[{"OBJECT_NAME":"CS2","OBJECT_ID":"2021-088C","EPOCH":"2026-03-09T17:38:11.846112","MEAN_MOTION":15.3325593,"ECCENTRICITY":0.00116375,"INCLINATION":97.3928,"RA_OF_ASC_NODE":134.2907,"ARG_OF_PERICENTER":82.3491,"MEAN_ANOMALY":277.9072,"EPHEMERIS_TYPE":0,"CLASSIFICATION_TYPE":"U","NORAD_CAT_ID":49262,"ELEMENT_SET_NO":999,"REV_AT_EPOCH":24526,"BSTAR":0.0005617759,"MEAN_MOTION_DOT":0.00018033,"MEAN_MOTION_DDOT":0},{"OBJECT_NAME":"STARLINK-31989","OBJECT_ID":"2024-107Q","EPOCH":"2026-03-09T09:34:28.994016","MEAN_MOTION":15.30202679,"ECCENTRICITY":0.00011581,"INCLINATION":53.16,"RA_OF_ASC_NODE":66.7609,"ARG_OF_PERICENTER":87.5405,"MEAN_ANOMALY":272.5728,"EPHEMERIS_TYPE":0,"CLASSIFICATION_TYPE":"U","NORAD_CAT_ID":59959,"ELEMENT_SET_NO":999,"REV_AT_EPOCH":9975,"BSTAR":-2.2658157e-5,"MEAN_MOTION_DOT":-1.03e-5,"MEAN_MOTION_DDOT":0}]
