CS2                     
1 49262U 21088C   26068.73485932  .00018033  00000+0  56178-3 0  9999
2 49262  97.3928 134.2907 0011637  82.3491 277.9072 15.33255930245263
STARLINK-31989          
1 59959U 24107Q   26068.39894669 -.00001030  00000+0 -22658-4 0  9999
2 59959  53.1600  66.7609 0001158  87.5405 272.5728 15.30202679 99750
